STARLINK-31096
1 58592U 23200D   26090.83335647  .00123226  00000+0  45801-2 0  9997
2 58592  42.9999  44.9480 0004998 187.5414 185.5387 15.26348856  5866
